NORAD_CAT_ID,OBJECT_NAME,OBJECT_TYPE,EPOCH,MEAN_MOTION,ECCENTRICITY,INCLINATION,RA_OF_ASC_NODE,ARG_OF_PERICENTER,MEAN_ANOMALY,BSTAR,MEAN_MOTION_DOT,MEAN_MOTION_DDOT,TLE_LINE0,TLE_LINE1,TLE_LINE2,SEMIMAJOR_AXIS,PERIOD,APOGEE,PERIGEE,DECAYED
52273.0,STARLINK-3782,PAYLOAD,2023-03-24 19:27:49,15.08854799,0.0001211,53.2145,271.0174,100.1132,259.9997,0.00023439,3.446e-05,0.0,0 STARLINK-3782,1 52273U 22041N   23083.81098711  .00003446  00000-0  23439-3 0  9990,2 52273  53.2145 271.0174 0001211 100.1132 259.9997 15.08854799 51334,6917.835,95.437,540.538,538.862,0.0
52273.0,STARLINK-3782,PAYLOAD,2023-03-25 11:21:42,15.08806743,0.0001166,53.2157,268.0406,87.995,272.1176,-0.00034195,-5.721e-05,0.0,0 STARLINK-3782,1 52273U 22041N   23084.47341366 -.00005721  00000-0 -34195-3 0  9991,2 52273  53.2157 268.0406 0001166  87.9950 272.1176 15.08806743 52658,6917.982,95.44,540.654,539.04,0.0
52273.0,STARLINK-3782,PAYLOAD,2023-03-25 19:18:38,15.0881005,0.0001051,53.2145,266.5564,97.3127,262.7984,-0.00019282,-3.353e-05,0.0,0 STARLINK-3782,1 52273U 22041N   23084.80461666 -.00003353  00000-0 -19282-3 0  9993,2 52273  53.2145 266.5564 0001051  97.3127 262.7984 15.08810050 51485,6917.972,95.439,540.564,539.11,0.0
52273.0,STARLINK-3782,PAYLOAD,2023-03-26 04:50:57,15.08821308,0.0001097,53.217,264.771,87.1634,272.9484,-4.1879e-05,-9.54e-06,0.0,0 STARLINK-3782,1 52273U 22041N   23085.20205613 -.00000954  00000-0 -41879-4 0  9998,2 52273  53.2170 264.7710 0001097  87.1634 272.9484 15.08821308 52764,6917.938,95.439,540.561,539.044,0.0
52273.0,STARLINK-3782,PAYLOAD,2023-03-26 11:12:29,15.08832523,6.35e-05,53.2167,263.5832,103.4875,256.6187,-4.6012e-05,-1.02e-05,0.0,0 STARLINK-3782,1 52273U 22041N   23085.46701121 -.00001020  00000-0 -46012-4 0  9990,2 52273  53.2167 263.5832 0000635 103.4875 256.6187 15.08832523 52803,6917.903,95.438,540.208,539.329,0.0
52273.0,STARLINK-3782,PAYLOAD,2023-03-26 19:09:25,15.0884657,0.0001059,53.2162,262.0951,83.527,276.5843,0.00013628,1.882e-05,0.0,0 STARLINK-3782,1 52273U 22041N   23085.79820670  .00001882  00000-0  13628-3 0  9997,2 52273  53.2162 262.0951 0001059  83.5270 276.5843 15.08846570 52854,6917.86,95.437,540.458,538.993,0.0
52273.0,STARLINK-3782,PAYLOAD,2023-03-27 12:38:40,15.08847219,0.0001104,53.2159,258.8241,74.0917,286.0197,0.00060252,9.316e-05,0.0,0 STARLINK-3782,1 52273U 22041N   23086.52685327  .00009316  00000-0  60252-3 0  9992,2 52273  53.2159 258.8241 0001104  74.0917 286.0197 15.08847219 52960,6917.858,95.437,540.487,538.96,0.0
52273.0,STARLINK-3782,PAYLOAD,2023-03-27 19:00:11,15.0886695,0.0001102,53.2159,257.6345,72.3507,287.7606,0.00079076,0.00012329,0.0,0 STARLINK-3782,1 52273U 22041N   23086.79180535  .00012329  00000-0  79076-3 0  9994,2 52273  53.2159 257.6345 0001102  72.3507 287.7606 15.08866950 53008,6917.798,95.436,540.425,538.901,0.0
52273.0,STARLINK-3782,PAYLOAD,2023-03-28 04:32:30,15.08860024,0.0001322,53.2162,255.852,73.456,286.6577,0.00040181,6.116e-05,0.0,0 STARLINK-3782,1 52273U 22041N   23087.18924253  .00006116  00000-0  40181-3 0  9993,2 52273  53.2162 255.8520 0001322  73.4560 286.6577 15.08860024 53069,6917.819,95.436,540.599,538.77,0.0
52273.0,STARLINK-3782,PAYLOAD,2023-03-28 10:54:02,15.08857992,0.0001165,53.2146,254.6621,78.1668,281.9454,0.00027767,4.136e-05,0.0,0 STARLINK-3782,1 52273U 22041N   23087.45420057  .00004136  00000-0  27767-3 0  9991,2 52273  53.2146 254.6621 0001165  78.1668 281.9454 15.08857992 51886,6917.825,95.436,540.496,538.884,0.0
52273.0,STARLINK-3782,PAYLOAD,2023-03-28 17:15:35,15.08856983,0.000107,53.215,253.472,78.6757,281.4355,0.00019892,2.881e-05,0.0,0 STARLINK-3782,1 52273U 22041N   23087.71915867  .00002881  00000-0  19892-3 0  9993,2 52273  53.2150 253.4720 0001070  78.6757 281.4355 15.08856983 53142,6917.828,95.436,540.434,538.953,0.0
52273.0,STARLINK-3782,PAYLOAD,2023-03-29 10:44:50,15.08837984,0.0001081,53.2177,250.2022,72.8842,287.2268,-0.00017225,-3.028e-05,0.0,0 STARLINK-3782,1 52273U 22041N   23088.44780225 -.00003028  00000-0 -17225-3 0  9996,2 52273  53.2177 250.2022 0001081  72.8842 287.2268 15.08837984 53253,6917.887,95.438,540.499,539.004,0.0
52273.0,STARLINK-3782,PAYLOAD,2023-03-29 17:06:22,15.0884386,7.29e-05,53.2154,249.0116,86.744,273.3635,1.2823e-05,-8.4e-07,0.0,0 STARLINK-3782,1 52273U 22041N   23088.71275831 -.00000084  00000-0  12823-4 0  9996,2 52273  53.2154 249.0116 0000729  86.7440 273.3635 15.08843860 52077,6917.869,95.437,540.238,539.229,0.0
52273.0,STARLINK-3782,PAYLOAD,2023-03-30 15:21:46,15.0884825,8.22e-05,53.2151,244.8485,94.2411,265.8675,0.00033979,5.125e-05,0.0,0 STARLINK-3782,1 52273U 22041N   23089.64011736  .00005125  00000-0  33979-3 0  9995,2 52273  53.2151 244.8485 0000822  94.2411 265.8675 15.08848250 52216,6917.855,95.437,540.289,539.152,0.0
52273.0,STARLINK-3782,PAYLOAD,2023-03-31 08:51:00,15.08853547,0.0001237,53.2151,241.5784,81.6114,278.5018,0.00042355,6.462e-05,0.0,0 STARLINK-3782,1 52273U 22041N   23090.36875479  .00006462  00000-0  42355-3 0  9991,2 52273  53.2151 241.5784 0001237  81.6114 278.5018 15.08853547 53547,6917.839,95.437,540.56,538.848,0.0
52273.0,STARLINK-3782,PAYLOAD,2023-03-31 19:58:42,15.0885334,0.0001216,53.2139,239.4928,90.356,269.7571,0.00034318,5.18e-05,0.0,0 STARLINK-3782,1 52273U 22041N   23090.83243408  .00005180  00000-0  34318-3 0  9990,2 52273  53.2139 239.4928 0001216  90.3560 269.7571 15.08853340 53613,6917.84,95.437,540.546,538.863,0.0
52273.0,STARLINK-3782,PAYLOAD,2023-04-01 10:17:11,15.0882533,0.0001269,53.2154,236.8191,93.6896,266.4241,-0.00021105,-3.644e-05,0.0,0 STARLINK-3782,1 52273U 22041N   23091.42860603 -.00003644  00000-0 -21105-3 0  9993,2 52273  53.2154 236.8191 0001269  93.6896 266.4241 15.08825330 53705,6917.925,95.438,540.668,538.912,0.0
52273.0,STARLINK-3782,PAYLOAD,2023-04-01 13:27:57,15.0882784,0.0001455,53.2146,236.2228,103.965,256.1504,-0.0001448,-2.591e-05,0.0,0 STARLINK-3782,1 52273U 22041N   23091.56108599 -.00002591  00000-0 -14480-3 0  9995,2 52273  53.2146 236.2228 0001455 103.9650 256.1504 15.08827840 52504,6917.918,95.438,540.789,538.776,0.0
52273.0,STARLINK-3782,PAYLOAD,2023-04-01 16:38:44,15.08832292,0.0001156,53.215,235.6312,87.0065,273.106,-5.3114e-05,-1.133e-05,0.0,0 STARLINK-3782,1 52273U 22041N   23091.69356575 -.00001133  00000-0 -53114-4 0  9997,2 52273  53.2150 235.6312 0001156  87.0065 273.1060 15.08832292 52521,6917.904,95.438,540.569,538.969,0.0
52273.0,STARLINK-3782,PAYLOAD,2023-04-02 02:11:02,15.08838191,0.0001254,53.2155,233.8467,87.6619,272.4517,0.00013267,1.824e-05,0.0,0 STARLINK-3782,1 52273U 22041N   23092.09100584  .00001824  00000-0  13267-3 0  9998,2 52273  53.2155 233.8467 0001254  87.6619 272.4517 15.08838191 53802,6917.886,95.438,540.618,538.883,0.0
52273.0,STARLINK-3782,PAYLOAD,2023-04-02 13:18:44,15.0884837,0.0001174,53.2153,231.7646,91.791,268.3217,0.00067381,0.00010454,0.0,0 STARLINK-3782,1 52273U 22041N   23092.55468611  .00010454  00000-0  67381-3 0  9992,2 52273  53.2153 231.7646 0001174  91.7910 268.3217 15.08848370 52650,6917.855,95.437,540.532,538.908,0.0
52273.0,STARLINK-3782,PAYLOAD,2023-04-02 18:04:53,15.08869963,0.0001271,53.2156,230.8726,90.1503,269.9635,0.0013612,0.0002146,0.0,0 STARLINK-3782,1 52273U 22041N   23092.75340201  .00021460  00000-0  13612-2 0  9994,2 52273  53.2156 230.8726 0001271  90.1503 269.9635 15.08869963 53902,6917.789,95.436,540.533,538.775,0.0
52273.0,STARLINK-3782,PAYLOAD,2023-04-03 02:01:50,15.08842007,0.0001987,53.2153,229.3849,91.4299,268.6921,0.00030396,4.553e-05,0.0,0 STARLINK-3782,1 52273U 22041N   23093.08460772  .00004553  00000-0  30396-3 0  9990,2 52273  53.2153 229.3849 0001987  91.4299 268.6921 15.08842007 53957,6917.874,95.437,541.114,538.365,0.0
52273.0,STARLINK-3782,PAYLOAD,2023-04-03 08:23:22,15.08846058,0.0002057,53.2152,228.196,91.4015,268.7213,0.00031278,4.694e-05,0.0,0 STARLINK-3782,1 52273U 22041N   23093.34956751  .00004694  00000-0  31278-3 0  9992,2 52273  53.2152 228.1960 0002057  91.4015 268.7213 15.08846058 52776,6917.862,95.437,541.15,538.304,0.0
52273.0,STARLINK-3782,PAYLOAD,2023-04-04 01:52:37,15.08838402,0.0001668,53.2152,224.9246,89.4003,270.718,0.00060435,9.343e-05,0.0,0 STARLINK-3782,1 52273U 22041N   23094.07821272  .00009343  00000-0  60435-3 0  9995,2 52273  53.2152 224.9246 0001668  89.4003 270.7180 15.08838402 54107,6917.885,95.438,540.904,538.596,0.0
52273.0,STARLINK-3782,PAYLOAD,2023-04-04 09:49:33,15.08848563,0.000155,53.2163,223.4386,88.1968,271.9201,0.00080953,0.00012622,0.0,0 STARLINK-3782,1 52273U 22041N   23094.40941153  .00012622  00000-0  80953-3 0  9994,2 52273  53.2163 223.4386 0001550  88.1968 271.9201 15.08848563 52939,6917.854,95.437,540.791,538.647,0.0
52273.0,STARLINK-3782,PAYLOAD,2023-04-05 14:26:29,15.08848891,0.0001329,53.2157,218.0836,92.5383,267.5761,0.00035143,5.311e-05,0.0,0 STARLINK-3782,1 52273U 22041N   23095.60172815  .00005311  00000-0  35143-3 0  9996,2 52273  53.2157 218.0836 0001329  92.5383 267.5761 15.08848891 54338,6917.853,95.437,540.638,538.799,0.0
52273.0,STARLINK-3782,PAYLOAD,2023-04-06 01:34:11,15.08844789,0.0001626,53.2159,216.0045,74.7784,285.3388,0.00020099,2.913e-05,0.0,0 STARLINK-3782,1 52273U 22041N   23096.06541001  .00002913  00000-0  20099-3 0  9993,2 52273  53.2159 216.0045 0001626  74.7784 285.3388 15.08844789 54400,6917.866,95.437,540.856,538.606,0.0
52273.0,STARLINK-3782,PAYLOAD,2023-04-06 07:55:44,15.08844592,0.0001522,53.2151,214.8145,92.9345,267.1822,0.00011206,1.496e-05,0.0,0 STARLINK-3782,1 52273U 22041N   23096.33037258  .00001496  00000-0  11206-3 0  9992,2 52273  53.2151 214.8145 0001522  92.9345 267.1822 15.08844592 53221,6917.866,95.437,540.784,538.678,0.0
52273.0,STARLINK-3782,PAYLOAD,2023-04-07 12:32:42,15.08826138,0.000137,53.2142,209.462,61.7998,298.3132,7.1791e-05,8.54e-06,0.0,0 STARLINK-3782,1 52273U 22041N   23097.52271057  .00000854  00000-0  71791-4 0  9994,2 52273  53.2142 209.4620 0001370  61.7998 298.3132 15.08826138 54629,6917.923,95.438,540.736,538.84,0.0
